id,spkid,full_name,pdes,name,prefix,neo,pha,H,G,M1,M2,K1,K2,PC,diameter,extent,albedo,rot_per,GM,BV,UB,IR,spec_B,spec_T,H_sigma,diameter_sigma,orbit_id,epoch,epoch_mjd,epoch_cal,equinox,e,a,q,i,om,w,ma,ad,n,tp,tp_cal,per,per_y,moid,moid_ld,moid_jup,t_jup,sigma_e,sigma_a,sigma_q,sigma_i,sigma_om,sigma_w,sigma_ma,sigma_ad,sigma_n,sigma_tp,sigma_per,class,producer,data_arc,first_obs,last_obs,n_obs_used,n_del_obs_used,n_dop_obs_used,condition_code,rms,two_body,A1,A2,A3,DT
bK06K01Q,3333610,       (2006 KQ1),2006 KQ1,,,Y,N,22.0,,,,,,,,,,,,,,,,,,,JPL 17,2459000.5,59000,20200531.0000000,J2000,.1757228482374558,1.244841766857473,1.026094625980331,9.607886011529875,88.66292927960492,18.25061207282988,151.518428569204,1.463588907734615,.7096314373796292,2458786.982925377858,20191030.4829254,507.305597014316,1.38892702810217,.0489436,19.047380812,3.63837,5.129,1.544E-7,5.228E-9,1.9549E-7,1.4525E-5,4.2359E-5,6.202E-5,4.4191E-5,6.1467E-9,4.4704E-9,6.1724E-5,3.1958E-6,AMO,Otto Matic,5154,2006-05-20,2020-06-29,56,,,0,.63217,,,,,
bK06K01R,3333611,       (2006 KR1),2006 KR1,,,Y,N,20.2,,,,,,,,,,,,,,,,,,,JPL 24,2459000.5,59000,20200531.0000000,J2000,.4040673570049447,1.162925385490625,.6930251985814718,19.58597744625258,236.8109499036672,176.3282784618946,263.5410091122612,1.632825572399778,.7859163026403118,2459123.234431851944,20200930.7344319,458.0640442125556,1.25411100400426,.290705,113.13366485,3.73947,5.289,2.6156E-7,2.1297E-8,3.1556E-7,2.0283E-5,2.5201E-5,3.4548E-5,4.3054E-5,2.9903E-8,2.1589E-8,5.7686E-5,1.2583E-5,APO,Otto Matic,5138,2006-05-20,2020-06-13,65,,,0,.72375,,,,,
bK06K86Y,3334817,       (2006 KY86),2006 KY86,,,Y,Y,19.8,,,,,,,,,,,,,,,,,,,JPL 60,2459000.5,59000,20200531.0000000,J2000,.6451666124864764,2.300517822403882,.8163005319588043,7.40823429491162,222.7078201365551,321.1935358475955,21.41854195637364,3.78473511284896,.2824656687734738,2458924.672937371903,20200316.1729374,1274.49116759285,3.489366646387,.0441595,17.185552615,1.25268,3.269,2.3974E-8,5.704E-9,5.6537E-8,9.9923E-6,8.7299E-5,8.2753E-5,5.653E-6,9.384E-9,1.0505E-9,1.9876E-5,4.74E-6,APO,Otto Matic,5150,2006-05-26,2020-07-01,309,,,0,.42666,,,,,
bK06M10H,3337145,       (2006 MH10),2006 MH10,,,Y,N,22.3,,,,,,,,,,,,,,,,,,,JPL 8,2459000.5,59000,20200531.0000000,J2000,.1557103679574071,1.245899467273052,1.051900002786028,13.34955404842496,87.89406488442962,253.726286328669,310.4545549718785,1.439898931760077,.7087279718550037,2459070.407562556678,20200808.9075626,507.9522952335952,1.39069759133086,.125785,48.95174845,3.84284,5.117,.00015987,.00031487,6.7042E-5,.012671,.0045381,.0096616,1.369,.0003639,.00026867,1.9581,.19256,AMO,Otto Matic,23,2006-06-22,2006-07-15,23,,,7,.70685,,,,,
bK06N00L,3337325,       (2006 NL),2006 NL,,,Y,N,20.0,,,,,,,,,,,,,,,,,,,JPL 48,2459000.5,59000,20200531.0000000,J2000,.575954307042822,.847714185991316,.3594695494283177,20.07705229535916,115.2195547805626,29.36343373065913,33.46950167868282,1.335958822554314,1.262786404697768,2458973.995516300959,20200504.4955163,285.0838420977151,0.780517021485873,.0566991,22.065588747,3.7125,6.758,2.3815E-7,2.0177E-9,2.0138E-7,1.6201E-5,6.4016E-6,6.7748E-6,2.7604E-5,3.1799E-9,4.5086E-9,2.1803E-5,1.0178E-6,ATE,Otto Matic,5134,2006-07-02,2020-07-22,289,1,1,0,.34572,,,,,
bK06P17Y,3338136,       (2006 PY17),2006 PY17,,,Y,Y,19.1,,,,,,,,,,,,,,,,,,,JPL 53,2459000.5,59000,20200531.0000000,J2000,.6407905804781039,1.895300073808899,.6808096393327016,2.848053528150467,310.0666948314887,133.0847288061775,59.48502056859974,3.109790508285097,.3777348932481349,2458843.021774842961,20191225.5217748,953.0493646069261,2.60930695306482,.0257429,10.018364393,2.16944,3.671,4.7155E-8,1.4557E-8,8.5329E-8,4.7491E-6,.0001344,.00013662,1.5632E-5,2.3885E-8,4.3518E-9,4.0104E-5,1.098E-5,APO,Otto Matic,5029,2006-08-15,2020-05-22,183,,,0,.55547,,,,,
bK06Q31B,3338519,       (2006 QB31),2006 QB31,,,Y,N,21.0,,,,,,,,,,,,,,,,,,,JPL 15,2459000.5,59000,20200531.0000000,J2000,.6116707612066263,1.177130059074083,.4571140198010375,24.7084900854522,340.9927012609476,228.5022652200615,329.1672758798492,1.897146098347128,.7717335819787643,2459040.452549480993,20200709.9525495,466.4822270360992,1.27715873247392,.0998178,38.846093226,3.21574,5.104,9.2813E-5,.00018947,3.5709E-5,.0061346,.00055466,.002544,.94364,.00030537,.00018633,1.2324,.11263,APO,Otto Matic,34,2006-08-23,2006-09-26,59,,,6,.55897,,,,,
bK06Q89V,3339667,       (2006 QV89),2006 QV89,,,Y,N,25.5,,,,,,,,,,,,,,,,,,,JPL 22,2459000.5,59000,20200531.0000000,J2000,.2247396030702563,1.192991381208974,.9248789717298322,1.068158216252735,165.890565917812,236.5086500891975,160.834496232154,1.461103790688115,.7563940688455706,2458787.866793505369,20191031.3667935,475.9423887993224,1.30305924380376,.000127614,0.04966354038,3.90038,5.295,3.3582E-7,5.3657E-9,4.0473E-7,3.7909E-6,3.6927E-5,.00011627,6.8223E-5,6.5716E-9,5.1031E-9,9.1622E-5,3.211E-6,APO,Otto Matic,4730,2006-08-29,2019-08-11,76,0,1,0,.48126,,,,,
bK06R01J,3341199,       (2006 RJ1),2006 RJ1,,,Y,N,22.2,,,,,,,,,,,,,,,,,,,JPL 29,2459000.5,59000,20200531.0000000,J2000,.3005004883174565,.9506961348335238,.6650114820745314,1.414075884884989,93.44432239993681,110.3617675646318,53.30883488473976,1.236380787592516,1.06326491016235,2458950.363073280016,20200410.8630733,338.5797805976985,0.926980918816423,.00134869,0.5248696873,3.72104,6.288,1.0038E-7,2.8782E-9,9.5866E-8,3.8435E-6,.00040181,.00038063,.00015848,3.7431E-9,4.8285E-9,.00014919,1.5376E-6,ATE,Otto Matic,4782,2006-09-12,2019-10-16,133,,,0,.62067,,,,,
bK06S19P,3343104,       (2006 SP19),2006 SP19,,,Y,N,24.2,,,,,,,,,,,,,,,,,,,JPL 14,2459000.5,59000,20200531.0000000,J2000,.293258126464054,.8807587280181417,.6224690735726781,4.583852197182285,358.1442624453265,166.3667340840943,48.11976082818224,1.139048382463605,1.192390865854702,2458960.144306069310,20200420.6443061,301.9144227861501,0.826596640071595,.0456715,17.773977655,3.8328,6.692,.00030991,.00013738,.00037004,.0068227,.0042544,.026706,1.4163,.00017766,.00027897,1.1784,.070636,ATE,Otto Matic,31,2006-09-19,2006-10-20,37,,,7,1.0709,,,,,
bK06S19S,3343102,       (2006 SS19),2006 SS19,,,Y,N,18.7,,,,,,,,,,,,,,,,,,,JPL 51,2459000.5,59000,20200531.0000000,J2000,.5804010254463405,2.787457213932348,1.169614188578214,11.71097718649459,154.0080224360767,142.711420071773,354.1560549586903,4.405300239286482,.2117833233370512,2459028.093981193737,20200627.5939812,1699.850556349346,4.653937183708,.189826,73.87458442,1.05385,3.034,7.1118E-8,1.7005E-8,2.0151E-7,9.3552E-6,2.7297E-5,2.8403E-5,5.2463E-6,2.6874E-8,1.938E-9,2.4841E-5,1.5555E-5,AMO,Otto Matic,5121,2006-09-18,2020-09-25,206,,,0,.46101,,,,,
bK06SD4S,3346460,       (2006 SS134),2006 SS134,,,Y,Y,21.4,,,,,,,,,,,,,,,,,,,JPL 30,2459000.5,59000,20200531.0000000,J2000,.4420504340951723,1.171499441465462,.6536376048234027,19.53559094829651,9.027462237818987,256.1078476791374,332.1465015770262,1.689361278107522,.7773040760631816,2459036.333465024452,20200705.8334650,463.139215509193,1.26800606573359,.0299996,11.674944332,3.51972,5.244,2.2208E-7,5.04E-8,2.8574E-7,2.6955E-5,7.1961E-6,2.6365E-5,.00024524,7.2679E-8,5.0162E-8,.00031781,2.9888E-5,APO,Otto Matic,1253,2006-09-28,2010-03-04,187,,,1,.50682,,,,,
bK06T00D,3347502,       (2006 TD),2006 TD,,,Y,N,22.4,,,,,,,,,,,,,,,,,,,JPL 14,2459000.5,59000,20200531.0000000,J2000,.3944029478498781,1.593214466365727,.9648459842740137,8.184305584093282,166.4444433773843,159.5068326495617,305.5057797276534,2.221582948457439,.4901090389715122,2459111.687951943719,20200919.1879519,734.530423587893,2.01103469839259,.018024,7.01440008,3.14565,4.273,1.2951E-6,2.3521E-8,2.077E-6,.00012258,.00045942,.00092642,.00021065,3.2798E-8,1.0853E-8,.00043222,1.6266E-5,APO,Otto Matic,733,2006-10-01,2008-10-03,39,,,1,.24176,,,,,
bK06T07U,3350633,       (2006 TU7),2006 TU7,,,Y,Y,21.9,,,,,,,,,,,,,,,,,,,JPL 39,2459000.5,59000,20200531.0000000,J2000,.4702098950481787,.8507127373577953,.4506991904086376,2.920036122830218,91.52354522990247,68.98936748348304,34.97136995975163,1.250726284306953,1.256115778188028,2458972.659118954625,20200503.1591190,286.597785213165,0.784661971836181,.0231336,9.002903112,3.73161,6.829,3.3825E-8,4.323E-9,2.9624E-8,3.4915E-6,7.1345E-5,6.8103E-5,1.541E-5,6.3557E-9,9.5747E-9,1.213E-5,2.1846E-6,ATE,Otto Matic,6551,2002-09-09,2020-08-16,130,,,0,.43144,,,1.206559080605465E-13,,
bK06U17E,3351834,       (2006 UE17),2006 UE17,,,Y,N,21.8,,,,,,,,,,,,,,,,,,,JPL 11,2459000.5,59000,20200531.0000000,J2000,.3325885143584145,1.17611644448429,.7849536235007594,12.13503261695642,27.70759288890443,115.306256740493,170.6832135898792,1.567279265467821,.772731453750966,2458779.617036376150,20191023.1170364,465.8798321881432,1.27550946526528,.0560902,21.828623134,3.47177,5.301,.00020707,.00026414,6.7512E-5,.0080032,.0062774,.017558,1.2634,.00035199,.00026031,1.5606,.15694,APO,Otto Matic,21,2006-10-19,2006-11-09,31,,,7,.48818,,,,,
bK06U63D,3352688,       (2006 UD63),2006 UD63,,,Y,N,18.7,,,,,,,,,,,,,,,,,,,JPL 107,2459000.5,59000,20200531.0000000,J2000,.4684808538037362,2.323223082480411,1.23483754922344,7.428149499880733,148.8546881522114,135.2993821480025,350.9142849486607,3.411608615737382,.2783349241101396,2459033.143101042340,20200702.6431010,1293.405781365564,3.54115203659292,.238627,92.86646959,1.82398,3.410,3.5494E-8,1.0169E-8,8.3095E-8,4.3493E-6,1.7357E-5,2.6385E-5,6.5721E-6,1.4934E-8,1.8275E-9,2.3469E-5,8.4924E-6,AMO,Otto Matic,6770,2002-03-12,2020-09-23,577,,,0,.37834,,,,,
bK06UI5J,3354739,       (2006 UJ185),2006 UJ185,,,Y,N,27.9,,,,,,,,,,,,,,,,,,,JPL 8,2459000.5,59000,20200531.0000000,J2000,.579448558791463,1.692726461590312,.711878552993633,.9014901090843488,39.61784007611851,74.23718313849756,37.94011505443491,2.673574370186991,.4475317986383527,2458915.723644063125,20200307.2236441,804.4121134974666,2.20236033811764,.000647874,0.25213312458,2.46186,4.004,.011719,.05117,.0016835,.082808,12.559,13.918,3.1,.080821,.020293,3.0827,36.475,APO,Otto Matic,1,2006-10-28,2006-10-29,39,,,7,.58602,,,,,
